[
    {
      "name_ru": "Ташкент",
      "name_uz": "Toshkent",
      "coordinates": {
        "lng": 69.2395064,
        "lat": 41.3153432
      },
      "id": 1
    },
    {
      "name_ru": "Самарканд",
      "name_uz": "Samarqand viloyati",
      "coordinates": {
        "lng": 66.9761517,
        "lat": 39.6534003
      },
      "id": 2
    },
    {
      "name_ru": "Ташкентская область",
      "name_uz": "Toshkent viloyati",
      "coordinates": {
        "lng": 69.0613267,
        "lat": 41.121724
      },
      "id": 3
    },
    {
      "name_ru": "Андижан",
      "name_uz": "Andijon viloyati",
      "coordinates": {
        "lng": 72.3463569,
        "lat": 40.7867402
      },
      "id": 4
    },
    {
      "name_ru": "Джизак",
      "name_uz": "Jizzah viloyati",
      "coordinates": {
        "lng": 67.8568254,
        "lat": 40.1328118
      },
      "id": 5
    },
    {
      "name_ru": "Кашкадарья",
      "name_uz": "Qashqadaryo viloyati",
      "coordinates": {
        "lng": 65.7954218,
        "lat": 38.863109
      },
      "id": 6
    },
    {
      "name_ru": "Навои",
      "name_uz": "Navoiy viloyati",
      "coordinates": {
        "lng": 65.3614745,
        "lat": 40.1082327
      },
      "id": 7
    },
    {
      "name_ru": "Наманган",
      "name_uz": "Namangan viloyati",
      "coordinates": {
        "lng": 71.2379557,
        "lat": 41.0011117
      },
      "id": 8
    },
    {
      "name_ru": "Сурхандарья",
      "name_uz": "Surxondaryo viloyati",
      "coordinates": {
        "lng": 67.3026997,
        "lat": 37.2375033
      },
      "id": 9
    },
    {
      "name_ru": "Сырдарья",
      "name_uz": "Sirdaryo viloyati",
      "coordinates": {
        "lng": 68.7785265,
        "lat": 40.4919928
      },
      "id": 10
    },
    {
      "name_ru": "Фергана",
      "name_uz": "Farg’ona viloyati",
      "coordinates": {
        "lng": 71.7957041,
        "lat": 40.3801216
      },
      "id": 11
    },
    {
      "name_ru": "Хорезм",
      "name_uz": "Xorazm viloyati",
      "coordinates": {
        "lng": 60.6257168,
        "lat": 41.5518043
      },
      "id": 12
    },
    {
      "name_ru": "Бухара",
      "name_uz": "Buxoro viloyati",
      "coordinates": {
        "lng": 64.4479122,
        "lat": 39.7670583
      },
      "id": 13
    },
    {
      "name_ru": "Каракалпакстан",
      "name_uz": "Qoraqalpog’iston",
      "coordinates": {
        "lng": 59.6171015,
        "lat": 42.4617936
      },
      "id": 14
    }
]




